{
  "type": "FeatureCollection",
  "features": [
    {
      "type": "Feature",
      "properties": {
        "norad_id": 32143,
        "name": "FENGYUN 1C DEB",
        "group": "fengyun-1c-debris",
        "lat": 66.37871342080153,
        "lon": 164.10909311518523,
        "alt_km": 750.83913027564,
        "timestamp": "2025-12-12T22:42:12.831351+00:00",
        "meta_object_name": "FENGYUN 1C DEB",
        "meta_object_id": "1999-025CSM",
        "meta_epoch": "2025-12-03T04:28:30.343584",
        "meta_mean_motion": 14.17959367,
        "meta_eccentricity": 0.01041232,
        "meta_inclination": 98.5963,
        "meta_ra_of_asc_node": 314.4234,
        "meta_arg_of_pericenter": 136.0042,
        "meta_mean_anomaly": 224.9481,
        "meta_ephemeris_type": 0,
        "meta_classification_type": "U",
        "meta_norad_cat_id": 32143,
        "meta_element_set_no": 999,
        "meta_rev_at_epoch": 95798,
        "meta_bstar": 0.00020859227,
        "meta_mean_motion_dot": 4.09e-06,
        "meta_mean_motion_ddot": 0,
        "tle_line1": "1 32143U 99025CSM 25337.18646231  .00000409  00000+0  20859-3 0  9998",
        "tle_line2": "2 32143  98.5963 314.4234 0104123 136.0042 224.9481 14.17959367957983"
      },
      "geometry": {
        "type": "Point",
        "coordinates": [
          164.10909311518523,
          66.37871342080153
        ]
      }
    },
    {
      "type": "Feature",
      "properties": {
        "norad_id": 32150,
        "name": "FENGYUN 1C DEB",
        "group": "fengyun-1c-debris",
        "lat": -25.551286700360542,
        "lon": 14.25667493994067,
        "alt_km": 700.4777672483515,
        "timestamp": "2025-12-12T22:42:12.831361+00:00",
        "meta_object_name": "FENGYUN 1C DEB",
        "meta_object_id": "1999-025CSU",
        "meta_epoch": "2025-12-11T07:21:52.754976",
        "meta_mean_motion": 14.60665333,
        "meta_eccentricity": 0.01719629,
        "meta_inclination": 99.1928,
        "meta_ra_of_asc_node": 7.9978,
        "meta_arg_of_pericenter": 71.9778,
        "meta_mean_anomaly": 290.0074,
        "meta_ephemeris_type": 0,
        "meta_classification_type": "U",
        "meta_norad_cat_id": 32150,
        "meta_element_set_no": 999,
        "meta_rev_at_epoch": 97685,
        "meta_bstar": 0.00022292944,
        "meta_mean_motion_dot": 1.27e-05,
        "meta_mean_motion_ddot": 0,
        "tle_line1": "1 32150U 99025CSU 25345.30686059  .00001270  00000+0  22293-3 0  9992",
        "tle_line2": "2 32150  99.1928   7.9978 0171962  71.9778 290.0074 14.60665333976850"
      },
      "geometry": {
        "type": "Point",
        "coordinates": [
          14.25667493994067,
          -25.551286700360542
        ]
      }
    },
    {
      "type": "Feature",
      "properties": {
        "norad_id": 32152,
        "name": "FENGYUN 1C DEB",
        "group": "fengyun-1c-debris",
        "lat": 17.674710267025432,
        "lon": -29.08693812066687,
        "alt_km": 673.65137056806,
        "timestamp": "2025-12-12T22:42:12.831371+00:00",
        "meta_object_name": "FENGYUN 1C DEB",
        "meta_object_id": "1999-025CSW",
        "meta_epoch": "2025-12-08T17:23:47.343264",
        "meta_mean_motion": 14.56605031,
        "meta_eccentricity": 0.00551964,
        "meta_inclination": 98.761,
        "meta_ra_of_asc_node": 143.6623,
        "meta_arg_of_pericenter": 213.6072,
        "meta_mean_anomaly": 146.162,
        "meta_ephemeris_type": 0,
        "meta_classification_type": "U",
        "meta_norad_cat_id": 32152,
        "meta_element_set_no": 999,
        "meta_rev_at_epoch": 62554,
        "meta_bstar": 0.0029018103,
        "meta_mean_motion_dot": 0.00013176,
        "meta_mean_motion_ddot": 0,
        "tle_line1": "1 32152U 99025CSW 25342.72485351  .00013176  00000+0  29018-2 0  9998",
        "tle_line2": "2 32152  98.7610 143.6623 0055196 213.6072 146.1620 14.56605031625541"
      },
      "geometry": {
        "type": "Point",
        "coordinates": [
          -29.08693812066687,
          17.674710267025432
        ]
      }
    },
    {
      "type": "Feature",
      "properties": {
        "norad_id": 32153,
        "name": "FENGYUN 1C DEB",
        "group": "fengyun-1c-debris",
        "lat": 54.73777539381355,
        "lon": 22.48964376821825,
        "alt_km": 738.1687217868048,
        "timestamp": "2025-12-12T22:42:12.831381+00:00",
        "meta_object_name": "FENGYUN 1C DEB",
        "meta_object_id": "1999-025CSX",
        "meta_epoch": "2025-12-08T07:03:10.270368",
        "meta_mean_motion": 14.48698922,
        "meta_eccentricity": 0.0207063,
        "meta_inclination": 98.7675,
        "meta_ra_of_asc_node": 185.0499,
        "meta_arg_of_pericenter": 234.7199,
        "meta_mean_anomaly": 123.4469,
        "meta_ephemeris_type": 0,
        "meta_classification_type": "U",
        "meta_norad_cat_id": 32153,
        "meta_element_set_no": 999,
        "meta_rev_at_epoch": 97159,
        "meta_bstar": 0.00055146558,
        "meta_mean_motion_dot": 2.668e-05,
        "meta_mean_motion_ddot": 0,
        "tle_line1": "1 32153U 99025CSX 25342.29386887  .00002668  00000+0  55147-3 0  9992",
        "tle_line2": "2 32153  98.7675 185.0499 0207063 234.7199 123.4469 14.48698922971590"
      },
      "geometry": {
        "type": "Point",
        "coordinates": [
          22.48964376821825,
          54.73777539381355
        ]
      }
    },
    {
      "type": "Feature",
      "properties": {
        "norad_id": 32155,
        "name": "FENGYUN 1C DEB",
        "group": "fengyun-1c-debris",
        "lat": 79.30179908677533,
        "lon": 153.12253749543711,
        "alt_km": 814.3822105783611,
        "timestamp": "2025-12-12T22:42:12.831391+00:00",
        "meta_object_name": "FENGYUN 1C DEB",
        "meta_object_id": "1999-025CSZ",
        "meta_epoch": "2025-12-04T13:09:10.027872",
        "meta_mean_motion": 14.32912866,
        "meta_eccentricity": 0.0069286,
        "meta_inclination": 98.9526,
        "meta_ra_of_asc_node": 267.8922,
        "meta_arg_of_pericenter": 264.2615,
        "meta_mean_anomaly": 95.0665,
        "meta_ephemeris_type": 0,
        "meta_classification_type": "U",
        "meta_norad_cat_id": 32155,
        "meta_element_set_no": 999,
        "meta_rev_at_epoch": 70105,
        "meta_bstar": 0.001161,
        "meta_mean_motion_dot": 3.211e-05,
        "meta_mean_motion_ddot": 0,
        "tle_line1": "1 32155U 99025CSZ 25338.54803273  .00003211  00000+0  11610-2 0  9991",
        "tle_line2": "2 32155  98.9526 267.8922 0069286 264.2615  95.0665 14.32912866701056"
      },
      "geometry": {
        "type": "Point",
        "coordinates": [
          153.12253749543711,
          79.30179908677533
        ]
      }
    },
    {
      "type": "Feature",
      "properties": {
        "norad_id": 32156,
        "name": "FENGYUN 1C DEB",
        "group": "fengyun-1c-debris",
        "lat": 73.4726372427619,
        "lon": 10.277954275957269,
        "alt_km": 737.5375504786143,
        "timestamp": "2025-12-12T22:42:12.831401+00:00",
        "meta_object_name": "FENGYUN 1C DEB",
        "meta_object_id": "1999-025CTA",
        "meta_epoch": "2025-12-08T07:32:53.302848",
        "meta_mean_motion": 14.31940306,
        "meta_eccentricity": 0.00822984,
        "meta_inclination": 99.3543,
        "meta_ra_of_asc_node": 151.5435,
        "meta_arg_of_pericenter": 70.1457,
        "meta_mean_anomaly": 290.8571,
        "meta_ephemeris_type": 0,
        "meta_classification_type": "U",
        "meta_norad_cat_id": 32156,
        "meta_element_set_no": 999,
        "meta_rev_at_epoch": 64757,
        "meta_bstar": 0.00055080587,
        "meta_mean_motion_dot": 1.483e-05,
        "meta_mean_motion_ddot": 0,
        "tle_line1": "1 32156U 99025CTA 25342.31450582  .00001483  00000+0  55081-3 0  9993",
        "tle_line2": "2 32156  99.3543 151.5435 0082298  70.1457 290.8571 14.31940306647571"
      },
      "geometry": {
        "type": "Point",
        "coordinates": [
          10.277954275957269,
          73.4726372427619
        ]
      }
    },
    {
      "type": "Feature",
      "properties": {
        "norad_id": 32160,
        "name": "FENGYUN 1C DEB",
        "group": "fengyun-1c-debris",
        "lat": -80.82016170568889,
        "lon": -140.5206494828214,
        "alt_km": 769.279669732241,
        "timestamp": "2025-12-12T22:42:12.831412+00:00",
        "meta_object_name": "FENGYUN 1C DEB",
        "meta_object_id": "1999-025CTE",
        "meta_epoch": "2025-12-08T17:12:37.312128",
        "meta_mean_motion": 14.37552839,
        "meta_eccentricity": 0.00822242,
        "meta_inclination": 98.881,
        "meta_ra_of_asc_node": 139.7521,
        "meta_arg_of_pericenter": 10.7927,
        "meta_mean_anomaly": 349.4999,
        "meta_ephemeris_type": 0,
        "meta_classification_type": "U",
        "meta_norad_cat_id": 32160,
        "meta_element_set_no": 999,
        "meta_rev_at_epoch": 95829,
        "meta_bstar": 0.0007997555,
        "meta_mean_motion_dot": 2.445e-05,
        "meta_mean_motion_ddot": 0,
        "tle_line1": "1 32160U 99025CTE 25342.71709852  .00002445  00000+0  79976-3 0  9997",
        "tle_line2": "2 32160  98.8810 139.7521 0082224  10.7927 349.4999 14.37552839958297"
      },
      "geometry": {
        "type": "Point",
        "coordinates": [
          -140.5206494828214,
          -80.82016170568889
        ]
      }
    }
  ]
}